SES-2                   
1 37809U 11049A   26203.24069325 -.00000193  00000+0  00000+0 0  9998
2 37809   0.1454  90.6856 0002927  26.7753 182.1670  1.00271435 54318
ARABSAT-5C              
1 37810U 11049B   26203.26184002  .00000127  00000+0  00000+0 0  9998
2 37810   0.0478   1.1638 0003771 139.9206 273.2136  1.00275147 54388
EUTELSAT 7 WEST A       
1 37816U 11051A   26203.11388868 -.00000058  00000+0  00000+0 0  9991
2 37816   0.0607   4.2255 0004940 125.8519 203.4537  1.00272195 54220
QUETZSAT 1              
1 37826U 11054A   26203.24259993 -.00000238  00000+0  00000+0 0  9995
2 37826   0.0360 284.1882 0002955 201.0371 185.0977  1.00271326 50223
INTELSAT 18 (IS-18)     
1 37834U 11056A   26203.07969839  .00000056  00000+0  00000+0 0  9991
2 37834   0.0138 335.3049 0001992 150.2693  22.9334  1.00271656 54160
EUTELSAT 16A            
1 37836U 11057A   26203.26106002  .00000107  00000+0  00000+0 0  9997
2 37836   0.0489  38.0593 0005500  84.3005 287.6210  1.00271128  7687
VIASAT-1                
1 37843U 11059A   26203.23505990  .00000000  00000+0  00000+0 0  9995
2 37843   0.0221  54.4362 0002678  60.6579 154.4083  1.00270088 47677
ASIASAT 7               
1 37933U 11069A   26203.13933537 -.00000330  00000+0  00000+0 0  9994
2 37933   0.0551 259.1067 0001500 195.4245   0.9938  1.00268223 45219
BEIDOU-2 IGSO-5         
1 37948U 11073A   26183.72937883 -.00000128  00000+0  00000+0 0  9990
2 37948  47.6496 271.3544 0114527 222.0502 141.5350  1.00270596 53296
LUCH-5A                 
1 37951U 11074B   26202.86327775 -.00000053  00000+0  00000+0 0  9992
2 37951   8.8395  73.2958 0002862  61.1940 282.9420  1.00274642 53396
NIGCOMSAT 1R            
1 38014U 11077A   26203.26634671  .00000148  00000+0  00000+0 0  9991
2 38014   0.0412 106.9197 0002262 245.9956  85.4938  1.00275018 53302
WGS F4 (USA 233)        
1 38070U 12003A   26203.13286877 -.00000212  00000+0  00000+0 0  9993
2 38070   0.0190  56.9629 0000255 271.1973 107.9636  1.00270463 44495
SES-4                   
1 38087U 12007A   26203.08725427 -.00000166  00000+0  00000+0 0  9996
2 38087   0.0236  32.5966 0002401  91.8100 184.8427  1.00270111 52572
BEIDOU-2 G5             
1 38091U 12008A   26203.12697542  .00000057  00000+0  00000+0 0  9991
2 38091   3.6590  69.4778 0007107 271.2175  63.5533  1.00272996 52713
MUOS-1                  
1 38093U 12009A   26203.16675009 -.00000129  00000+0  00000+0 0  9993
2 38093   5.5453  47.1022 0056347   3.7384 209.1502  1.00271347 52790
INTELSAT 22 (IS-22)     
1 38098U 12011A   26203.12957543 -.00000055  00000+0  00000+0 0  9991
2 38098   0.0031 355.3853 0002032 149.6250 273.6131  1.00271516  7531
YAHSAT 1B               
1 38245U 12016A   26203.26730006  .00000130  00000+0  00000+0 0  9991
2 38245   0.0904  88.9692 0002726  26.7739 328.1033  1.00271818 45951
AEHF-2 (USA 235)        
1 38254U 12019A   26203.04211484 -.00000137  00000+0  00000+0 0  9992
2 38254   6.7284  57.2194 0002134  68.4044 172.8472  1.00271742  7333
JCSAT-13                
1 38331U 12023A   26203.28246679 -.00000353  00000+0  00000+0 0  9993
2 38331   0.0144  20.8289 0002396 103.7233  41.1734  1.00271848 51891
VINASAT-2               
1 38332U 12023B   26203.28394013 -.00000326  00000+0  00000+0 0  9990
2 38332   0.0326 300.9943 0002439 176.9028  56.1960  1.00271768 47012
NIMIQ 6                 
1 38342U 12026A   26203.24072392 -.00000170  00000+0  00000+0 0  9990
2 38342   0.0553 263.1219 0002989 219.4055 173.0156  1.00271256 50768
ZHONGXING-2A            
1 38352U 12028A   26203.13477545 -.00000291  00000+0  00000+0 0  9994
2 38352   1.5430  83.4424 0001561  24.7520 338.4426  1.00273654 51659
INTELSAT 19 (IS-19)     
1 38356U 12030A   26203.21156005 -.00000053  00000+0  00000+0 0  9991
2 38356   0.0021 344.6729 0003068 134.1324  63.3104  1.00272900 50801
ECHOSTAR 17             
1 38551U 12035A   26203.24627885 -.00000072  00000+0  00000+0 0  9996
2 38551   0.0186  61.5768 0002123  57.2687 162.7009  1.00271846 51410
METEOSAT-10 (MSG-3)     
1 38552U 12035B   26202.83018792 -.00000008  00000+0  00000+0 0  9991
2 38552   4.7516  60.8480 0001468  19.0859 158.5662  1.00272929 51208
SES-5                   
1 38652U 12036A   26203.19280741  .00000037  00000+0  00000+0 0  9999
2 38652   0.0449 320.2688 0002060 156.4165 257.6413  1.00271882 44801
INTELSAT 20 (IS-20)     
1 38740U 12043A   26203.05739243 -.00000022  00000+0  00000+0 0  9991
2 38740   0.0158  79.1510 0001406 105.2574 204.5613  1.00271770 51097
HYLAS 2                 
1 38741U 12043B   26202.26822662 -.00000263  00000+0  00000+0 0  9999
2 38741   2.5130  80.6497 0001599 221.2518  21.2291  1.00330437 51111
INTELSAT 21 (IS-21)     
1 38749U 12045A   26203.24641328 -.00000282  00000+0  00000+0 0  9997
2 38749   0.0372 254.9027 0001871 235.8817 199.9200  1.00271069 50871
ASTRA 2F                
1 38778U 12051A   26203.26348670  .00000153  00000+0  00000+0 0  9998
2 38778   0.0712 252.7583 0003266 287.9924 242.2707  1.00273584 41486
GSAT-10                 
1 38779U 12051B   26203.14350167 -.00000162  00000+0  00000+0 0  9991
2 38779   0.0735 263.3977 0007644 192.6528 338.5158  1.00272654 50445
