OBJECT_NAME,OBJECT_ID,EPOCH,MEAN_MOTION,ECCENTRICITY,INCLINATION,RA_OF_ASC_NODE,ARG_OF_PERICENTER,MEAN_ANOMALY,EPHEMERIS_TYPE,CLASSIFICATION_TYPE,NORAD_CAT_ID,ELEMENT_SET_NO,REV_AT_EPOCH,BSTAR,MEAN_MOTION_DOT,MEAN_MOTION_DDOT
SES-2,2011-049A,2026-07-22T05:46:35.896800,1.00271435,.00029279,0.1454,90.6856,26.7753,182.1670,0,U,37809,999,5431,0,-.193E-5,0
ARABSAT-5C,2011-049B,2026-07-22T06:17:02.977728,1.00275147,.00037716,0.0478,1.1638,139.9206,273.2136,0,U,37810,999,5438,0,.127E-5,0
EUTELSAT 7 WEST A,2011-051A,2026-07-22T02:43:59.981952,1.00272195,.00049402,0.0607,4.2255,125.8519,203.4537,0,U,37816,999,5422,0,-.58E-6,0
QUETZSAT 1,2011-054A,2026-07-22T05:49:20.633952,1.00271326,.00029554,0.0360,284.1882,201.0371,185.0977,0,U,37826,999,5022,0,-.238E-5,0
INTELSAT 18 (IS-18),2011-056A,2026-07-22T01:54:45.940896,1.00271656,.00019928,0.0138,335.3049,150.2693,22.9334,0,U,37834,999,5416,0,.56E-6,0
EUTELSAT 16A,2011-057A,2026-07-22T06:15:55.585728,1.00271128,.00055007,0.0489,38.0593,84.3005,287.6210,0,U,37836,999,768,0,.107E-5,0
VIASAT-1,2011-059A,2026-07-22T05:38:29.175360,1.00270088,.00026789,0.0221,54.4362,60.6579,154.4083,0,U,37843,999,4767,0,0,0
ASIASAT 7,2011-069A,2026-07-22T03:20:38.575968,1.00268223,.00015008,0.0551,259.1067,195.4245,0.9938,0,U,37933,999,4521,0,-.33E-5,0
BEIDOU-2 IGSO-5,2011-073A,2026-07-02T17:30:18.330912,1.00270596,.01145273,47.6496,271.3544,222.0502,141.5350,0,U,37948,999,5329,0,-.128E-5,0
LUCH-5A,2011-074B,2026-07-21T20:43:07.197600,1.00274642,.00028623,8.8395,73.2958,61.1940,282.9420,0,U,37951,999,5339,0,-.53E-6,0
NIGCOMSAT 1R,2011-077A,2026-07-22T06:23:32.355744,1.00275018,.00022626,0.0412,106.9197,245.9956,85.4938,0,U,38014,999,5330,0,.148E-5,0
WGS F4 (USA 233),2012-003A,2026-07-22T03:11:19.861728,1.00270463,.00002555,0.0190,56.9629,271.1973,107.9636,0,U,38070,999,4449,0,-.212E-5,0
SES-4,2012-007A,2026-07-22T02:05:38.768928,1.00270111,.00024019,0.0236,32.5966,91.8100,184.8427,0,U,38087,999,5257,0,-.166E-5,0
BEIDOU-2 G5,2012-008A,2026-07-22T03:02:50.676288,1.00272996,.00071071,3.6590,69.4778,271.2175,63.5533,0,U,38091,999,5271,0,.57E-6,0
MUOS-1,2012-009A,2026-07-22T04:00:07.207776,1.00271347,.00563479,5.5453,47.1022,3.7384,209.1502,0,U,38093,999,5279,0,-.129E-5,0
INTELSAT 22 (IS-22),2012-011A,2026-07-22T03:06:35.317152,1.00271516,.0002032,0.0031,355.3853,149.6250,273.6131,0,U,38098,999,753,0,-.55E-6,0
YAHSAT 1B,2012-016A,2026-07-22T06:24:54.725184,1.00271818,.00027263,0.0904,88.9692,26.7739,328.1033,0,U,38245,999,4595,0,.13E-5,0
AEHF-2 (USA 235),2012-019A,2026-07-22T01:00:38.722176,1.00271742,.00021344,6.7284,57.2194,68.4044,172.8472,0,U,38254,999,733,0,-.137E-5,0
JCSAT-13,2012-023A,2026-07-22T06:46:45.130656,1.00271848,.00023966,0.0144,20.8289,103.7233,41.1734,0,U,38331,999,5189,0,-.353E-5,0
VINASAT-2,2012-023B,2026-07-22T06:48:52.427232,1.00271768,.0002439,0.0326,300.9943,176.9028,56.1960,0,U,38332,999,4701,0,-.326E-5,0
NIMIQ 6,2012-026A,2026-07-22T05:46:38.546688,1.00271256,.00029891,0.0553,263.1219,219.4055,173.0156,0,U,38342,999,5076,0,-.17E-5,0
ZHONGXING-2A,2012-028A,2026-07-22T03:14:04.598880,1.00273654,.00015614,1.5430,83.4424,24.7520,338.4426,0,U,38352,999,5165,0,-.291E-5,0
INTELSAT 19 (IS-19),2012-030A,2026-07-22T05:04:38.788320,1.00272900,.00030686,0.0021,344.6729,134.1324,63.3104,0,U,38356,999,5080,0,-.53E-6,0
ECHOSTAR 17,2012-035A,2026-07-22T05:54:38.492640,1.00271846,.00021234,0.0186,61.5768,57.2687,162.7009,0,U,38551,999,5141,0,-.72E-6,0
METEOSAT-10 (MSG-3),2012-035B,2026-07-21T19:55:28.236288,1.00272929,.00014684,4.7516,60.8480,19.0859,158.5662,0,U,38552,999,5120,0,-.8E-7,0
SES-5,2012-036A,2026-07-22T04:37:38.560224,1.00271882,.00020608,0.0449,320.2688,156.4165,257.6413,0,U,38652,999,4480,0,.37E-6,0
INTELSAT 20 (IS-20),2012-043A,2026-07-22T01:22:38.705952,1.00271770,.00014064,0.0158,79.1510,105.2574,204.5613,0,U,38740,999,5109,0,-.22E-6,0
HYLAS 2,2012-043B,2026-07-21T06:26:14.779968,1.00330437,.00015995,2.5130,80.6497,221.2518,21.2291,0,U,38741,999,5111,0,-.263E-5,0
INTELSAT 21 (IS-21),2012-045A,2026-07-22T05:54:50.107392,1.00271069,.00018716,0.0372,254.9027,235.8817,199.9200,0,U,38749,999,5087,0,-.282E-5,0
ASTRA 2F,2012-051A,2026-07-22T06:19:25.250880,1.00273584,.00032668,0.0712,252.7583,287.9924,242.2707,0,U,38778,999,4148,0,.153E-5,0
GSAT-10,2012-051B,2026-07-22T03:26:38.544288,1.00272654,.00076444,0.0735,263.3977,192.6528,338.5158,0,U,38779,999,5044,0,-.162E-5,0
